NAVSTAR 43 (USA 132)    
1 24876U 97035A   26094.41177889  .00000015  00000+0  00000+0 0  9991
2 24876  55.9542 101.4579 0098969  56.1420 304.8226  2.00564009210470
NAVSTAR 48 (USA 151)    
1 26407U 00040A   26095.73893036  .00000008  00000+0  00000+0 0  9990
2 26407  54.8673 218.0384 0122119 302.5079 230.6033  2.00569364188494
NAVSTAR 51 (USA 166)    
1 27663U 03005A   26095.76246124  .00000008  00000+0  00000+0 0  9992
2 27663  54.8986 217.8451 0148450  52.8937 272.6776  2.00564553169856
NAVSTAR 54 (USA 177)    
1 28190U 04009A   26093.34366605 -.00000035  00000+0  00000+0 0  9993
2 28190  54.8926 278.7093 0112444 169.9755   4.1137  2.00557195161446
NAVSTAR 56 (USA 180)    
1 28474U 04045A   26095.75422909 -.00000082  00000+0  00000+0 0  9997
2 28474  55.1768 327.8146 0170337 314.0563 225.7789  2.00575150156976
NAVSTAR 57 (USA 183)    
1 28874U 05038A   26095.81134223 -.00000014  00000+0  00000+0 0  9995
2 28874  54.9383 276.0964 0128061 295.7126 245.5600  2.00570845150387
INMARSAT 4-F2           
1 28899U 05044A   26095.77338251 -.00000257  00000+0  00000+0 0  9990
2 28899   4.9998  43.7735 0003435 352.7537 219.4551  1.00271546 74793
NAVSTAR 58 (USA 190)    
1 29486U 06042A   26095.22099612  .00000023  00000+0  00000+0 0  9997
2 29486  54.6997 154.2366 0106277  53.2094 319.1647  2.00573913142934
NAVSTAR 59 (USA 192)    
1 29601U 06052A   26095.62317056  .00000008  00000+0  00000+0 0  9999
2 29601  54.9491 216.8814 0087069  89.9450 271.0399  2.00553890141950
NAVSTAR 60 (USA 196)    
1 32260U 07047A   26094.93149622 -.00000013  00000+0  00000+0 0  9991
2 32260  54.0414  83.0831 0164095  86.2491 275.6217  2.00559152135346
COSMOS 2433 [GLONASS-M] 
1 32275U 07052A   26095.65000455 -.00000046  00000+0  00000+0 0  9999
2 32275  65.6166 318.3754 0000937 248.9482 111.0905  2.13104054143519
COSMOS 2432 [GLONASS-M] 
1 32276U 07052B   26095.48646690 -.00000046  00000+0  00000+0 0  9998
2 32276  65.6327 318.5074 0009689 336.2251 202.4839  2.13103236143538
NAVSTAR 61 (USA 199)    
1 32384U 07062A   26095.00291115 -.00000022  00000+0  00000+0 0  9999
2 32384  55.0910 277.0926 0033911 161.3571  17.5151  2.00555625134048
COSMOS 2434 [GLONASS-M] 
1 32393U 07065A   26093.45692049  .00000014  00000+0  00000+0 0  9990
2 32393  64.3164 194.4350 0002255  60.2040 307.5513  2.13101374142180
COSMOS 2436 [GLONASS-M] 
1 32395U 07065C   26095.19957588  .00000018  00000+0  00000+0 0  9991
2 32395  64.3249 194.4474 0017243   2.7284  34.5461  2.13100298142179
NAVSTAR 62 (USA 201)    
1 32711U 08012A   26095.34686862  .00000022  00000+0  00000+0 0  9992
2 32711  54.4849 152.8355 0208740 246.7478 111.1181  2.00570393132298
NAVSTAR 64 (USA 206)    
1 35752U 09043A   26095.83965606 -.00000085  00000+0  00000+0 0  9995
2 35752  56.1680  30.2938 0052484  80.9340 289.3546  2.00558490121916
